NORAD_CAT_ID,OBJECT_NAME,OBJECT_TYPE,EPOCH,MEAN_MOTION,ECCENTRICITY,INCLINATION,RA_OF_ASC_NODE,ARG_OF_PERICENTER,MEAN_ANOMALY,BSTAR,MEAN_MOTION_DOT,MEAN_MOTION_DDOT,TLE_LINE0,TLE_LINE1,TLE_LINE2,SEMIMAJOR_AXIS,PERIOD,APOGEE,PERIGEE,DECAYED
52605.0,STARLINK-4000,PAYLOAD,2023-06-19 02:17:41,15.08851741,0.0001002,53.2174,69.0252,98.5134,261.5972,0.00014192,1.972e-05,0.0,0 STARLINK-4000,1 52605U 22052H   23170.09562446  .00001972  00000-0  14192-3 0  9997,2 52605  53.2174  69.0252 0001002  98.5134 261.5972 15.08851741 61008,6917.845,95.437,540.403,539.016,0.0
52605.0,STARLINK-4000,PAYLOAD,2023-06-19 10:14:38,15.08843591,0.0001094,53.2177,67.5373,90.1935,269.9182,0.0001138,1.524e-05,0.0,0 STARLINK-4000,1 52605U 22052H   23170.42683026  .00001524  00000-0  11380-3 0  9991,2 52605  53.2177  67.5373 0001094  90.1935 269.9182 15.08843591 60688,6917.869,95.437,540.491,538.978,0.0
52605.0,STARLINK-4000,PAYLOAD,2023-06-20 02:08:29,15.08837664,0.0001073,53.2173,64.5636,90.3926,269.7189,0.0002246,3.288e-05,0.0,0 STARLINK-4000,1 52605U 22052H   23171.08923602  .00003288  00000-0  22460-3 0  9991,2 52605  53.2173  64.5636 0001073  90.3926 269.7189 15.08837664 61154,6917.888,95.438,540.495,539.01,0.0
52605.0,STARLINK-4000,PAYLOAD,2023-06-20 10:05:26,15.08835024,0.0001168,53.217,63.0761,87.4022,272.7104,0.00010412,1.369e-05,0.0,0 STARLINK-4000,1 52605U 22052H   23171.42044081  .00001369  00000-0  10412-3 0  9996,2 52605  53.2170  63.0761 0001168  87.4022 272.7104 15.08835024 60836,6917.896,95.438,540.569,538.953,0.0
52605.0,STARLINK-4000,PAYLOAD,2023-06-20 21:13:07,15.08841395,0.0001038,53.2171,60.9958,91.5884,268.5227,5.0872e-05,5.22e-06,0.0,0 STARLINK-4000,1 52605U 22052H   23171.88411749  .00000522  00000-0  50872-4 0  9990,2 52605  53.2171  60.9958 0001038  91.5884 268.5227 15.08841395 60904,6917.876,95.437,540.459,539.023,0.0
52605.0,STARLINK-4000,PAYLOAD,2023-06-21 01:59:16,15.08849861,9.44e-05,53.2174,60.1039,98.9541,261.1558,3.3064e-05,2.39e-06,0.0,0 STARLINK-4000,1 52605U 22052H   23172.08283177  .00000239  00000-0  33064-4 0  9994,2 52605  53.2174  60.1039 0000944  98.9541 261.1558 15.08849861 60930,6917.85,95.437,540.368,539.062,0.0
52605.0,STARLINK-4000,PAYLOAD,2023-06-22 01:50:03,15.08852508,9.57e-05,53.2176,55.6417,100.2391,259.8709,9.0657e-05,1.156e-05,0.0,0 STARLINK-4000,1 52605U 22052H   23173.07642658  .00001156  00000-0  90657-4 0  9997,2 52605  53.2176  55.6417 0000957 100.2391 259.8709 15.08852508 61457,6917.842,95.437,540.369,539.045,0.0
52605.0,STARLINK-4000,PAYLOAD,2023-06-22 09:46:59,15.08849092,8.97e-05,53.2171,54.1591,75.1939,284.9152,2.5111e-05,1.12e-06,0.0,0 STARLINK-4000,1 52605U 22052H   23173.40763048  .00000112  00000-0  25111-4 0  9995,2 52605  53.2171  54.1591 0000897  75.1939 284.9152 15.08849092 61501,6917.853,95.437,540.338,539.097,0.0
52605.0,STARLINK-4000,PAYLOAD,2023-06-23 22:20:51,15.08845675,9.71e-05,53.2173,47.317,91.6831,268.4272,3.0297e-05,1.95e-06,0.0,0 STARLINK-4000,1 52605U 22052H   23174.93115516  .00000195  00000-0  30297-4 0  9997,2 52605  53.2173  47.3170 0000971  91.6831 268.4272 15.08845675 61735,6917.863,95.437,540.4,539.056,0.0
52605.0,STARLINK-4000,PAYLOAD,2023-06-25 07:43:57,15.08841231,0.0001,53.216,41.0732,81.8655,278.245,4.9346e-05,4.98e-06,0.0,0 STARLINK-4000,1 52605U 22052H   23176.32219461  .00000498  00000-0  49346-4 0  9997,2 52605  53.2160  41.0732 0001000  81.8655 278.2450 15.08841231 61949,6917.877,95.437,540.433,539.05,0.0
52605.0,STARLINK-4000,PAYLOAD,2023-06-26 09:10:08,15.08840482,9.94e-05,53.2169,36.3166,93.0627,267.0478,5.5285e-05,5.92e-06,0.0,0 STARLINK-4000,1 52605U 22052H   23177.38203763  .00000592  00000-0  55285-4 0  9996,2 52605  53.2169  36.3166 0000994  93.0627 267.0478 15.08840482 62103,6917.879,95.438,540.432,539.056,0.0
52605.0,STARLINK-4000,PAYLOAD,2023-06-26 20:17:50,15.08835405,9.86e-05,53.2167,34.2347,89.2714,270.8391,-2.3674e-06,-3.25e-06,0.0,0 STARLINK-4000,1 52605U 22052H   23177.84572203 -.00000325  00000-0 -23674-5 0  9999,2 52605  53.2167  34.2347 0000986  89.2714 270.8391 15.08835405 62176,6917.894,95.438,540.442,539.077,0.0
52605.0,STARLINK-4000,PAYLOAD,2023-06-27 21:44:00,15.08838209,9.48e-05,53.2169,29.4756,87.9932,272.1168,0.00033799,5.095e-05,0.0,0 STARLINK-4000,1 52605U 22052H   23178.90556438  .00005095  00000-0  33799-3 0  9993,2 52605  53.2169  29.4756 0000948  87.9932 272.1168 15.08838209 62333,6917.886,95.438,540.407,539.095,0.0
52605.0,STARLINK-4000,PAYLOAD,2023-06-28 18:24:01,15.08833151,0.0001028,53.2164,25.6105,86.9207,273.1902,9.1618e-05,1.17e-05,0.0,0 STARLINK-4000,1 52605U 22052H   23179.76668917  .00001170  00000-0  91618-4 0  9999,2 52605  53.2164  25.6105 0001028  86.9207 273.1902 15.08833151 62460,6917.901,95.438,540.477,539.055,0.0
52605.0,STARLINK-4000,PAYLOAD,2023-06-29 08:42:29,15.0884201,0.0001121,53.2177,22.9345,84.3251,275.7869,0.00013237,1.82e-05,0.0,0 STARLINK-4000,1 52605U 22052H   23180.36284545  .00001820  00000-0  13237-3 0  9990,2 52605  53.2177  22.9345 0001121  84.3251 275.7869 15.08842010 62559,6917.874,95.437,540.515,538.964,0.0
52605.0,STARLINK-4000,PAYLOAD,2023-06-30 14:54:49,15.08835656,0.0001009,53.2176,17.2838,84.0138,276.0969,1.7098e-05,-1.6e-07,0.0,0 STARLINK-4000,1 52605U 22052H   23181.62140931 -.00000016  00000-0  17098-4 0  9997,2 52605  53.2176  17.2838 0001009  84.0138 276.0969 15.08835656 62742,6917.894,95.438,540.457,539.061,0.0
52605.0,STARLINK-4000,PAYLOAD,2023-07-01 17:56:22,15.0883873,0.0001013,53.2174,12.229,81.2693,278.8414,9.6381e-06,-1.34e-06,0.0,0 STARLINK-4000,1 52605U 22052H   23182.74748635 -.00000134  00000-0  96381-5 0  9990,2 52605  53.2174  12.2290 0001013  81.2693 278.8414 15.08838730 62917,6917.884,95.438,540.45,539.048,0.0
52605.0,STARLINK-4000,PAYLOAD,2023-07-02 19:22:32,15.08837763,0.0001026,53.2175,7.4712,89.8906,270.2204,8.8283e-05,1.117e-05,0.0,0 STARLINK-4000,1 52605U 22052H   23183.80732566  .00001117  00000-0  88283-4 0  9996,2 52605  53.2175   7.4712 0001026  89.8906 270.2204 15.08837763 63074,6917.887,95.438,540.462,539.042,0.0
52605.0,STARLINK-4000,PAYLOAD,2023-07-03 20:48:43,15.08837073,0.0001015,53.2175,2.7139,89.9021,270.2087,2.9515e-05,1.82e-06,0.0,0 STARLINK-4000,1 52605U 22052H   23184.86716946  .00000182  00000-0  29515-4 0  9991,2 52605  53.2175   2.7139 0001015  89.9021 270.2087 15.08837073 63233,6917.889,95.438,540.457,539.052,0.0
52605.0,STARLINK-4000,PAYLOAD,2023-07-04 20:39:30,15.08843811,0.0001009,53.2177,358.2529,93.3424,266.7683,4.4254e-05,4.17e-06,0.0,0 STARLINK-4000,1 52605U 22052H   23185.86076640  .00000417  00000-0  44254-4 0  9990,2 52605  53.2177 358.2529 0001009  93.3424 266.7683 15.08843811 63381,6917.869,95.437,540.432,539.036,0.0
52605.0,STARLINK-4000,PAYLOAD,2023-07-05 17:19:31,15.08834984,0.0001058,53.2179,354.3872,90.1224,269.9889,3.3882e-05,2.51e-06,0.0,0 STARLINK-4000,1 52605U 22052H   23186.72189350  .00000251  00000-0  33882-4 0  9990,2 52605  53.2179 354.3872 0001058  90.1224 269.9889 15.08834984 63517,6917.896,95.438,540.493,539.029,0.0
52605.0,STARLINK-4000,PAYLOAD,2023-07-06 18:45:41,15.08845864,0.0001076,53.2176,349.6286,87.2984,272.8131,6.5626e-05,7.57e-06,0.0,0 STARLINK-4000,1 52605U 22052H   23187.78172686  .00000757  00000-0  65626-4 0  9993,2 52605  53.2176 349.6286 0001076  87.2984 272.8131 15.08845864 63679,6917.862,95.437,540.472,538.983,0.0
52605.0,STARLINK-4000,PAYLOAD,2023-07-08 20:02:38,15.08843768,0.0001192,53.218,340.4085,99.2204,260.8923,-1.4046e-05,-5.11e-06,0.0,0 STARLINK-4000,1 52605U 22052H   23189.83516819 -.00000511  00000-0 -14046-4 0  9991,2 52605  53.2180 340.4085 0001192  99.2204 260.8923 15.08843768 63988,6917.869,95.437,540.558,538.909,0.0
52605.0,STARLINK-4000,PAYLOAD,2023-07-09 10:21:07,15.0883483,0.0001221,53.2183,337.7313,104.2915,255.8213,-3.4955e-05,-8.44e-06,0.0,0 STARLINK-4000,1 52605U 22052H   23190.43133512 -.00000844  00000-0 -34955-4 0  9994,2 52605  53.2183 337.7313 0001221 104.2915 255.8213 15.08834830 64070,6917.896,95.438,540.606,538.917,0.0
52605.0,STARLINK-4000,PAYLOAD,2023-07-10 16:33:26,15.08844011,0.0001106,53.2176,332.0839,98.1631,261.9487,7.7589e-05,9.47e-06,0.0,0 STARLINK-4000,1 52605U 22052H   23191.68988789  .00000947  00000-0  77589-4 0  9998,2 52605  53.2176 332.0839 0001106  98.1631 261.9487 15.08844011 64265,6917.868,95.437,540.498,538.968,0.0
52605.0,STARLINK-4000,PAYLOAD,2023-07-11 10:02:41,15.08832499,0.0001133,53.2189,328.816,102.0646,258.0473,3.5317e-05,2.74e-06,0.0,0 STARLINK-4000,1 52605U 22052H   23192.41853808  .00000274  00000-0  35317-4 0  9999,2 52605  53.2189 328.8160 0001133 102.0646 258.0473 15.08832499 64371,6917.903,95.438,540.552,538.985,0.0
52605.0,STARLINK-4000,PAYLOAD,2023-07-12 17:50:24,15.08839435,0.0001105,53.2188,322.8638,86.3438,273.7681,3.7653e-06,-2.28e-06,0.0,0 STARLINK-4000,1 52605U 22052H   23193.74333818 -.00000228  00000-0  37653-5 0  9996,2 52605  53.2188 322.8638 0001105  86.3438 273.7681 15.08839435 64570,6917.882,95.438,540.512,538.983,0.0
52605.0,STARLINK-4000,PAYLOAD,2023-07-14 07:59:39,15.08834392,0.0001041,53.2178,315.7283,93.7286,266.3825,4.992e-05,5.07e-06,0.0,0 STARLINK-4000,1 52605U 22052H   23195.33310166  .00000507  00000-0  49920-4 0  9992,2 52605  53.2178 315.7283 0001041  93.7286 266.3825 15.08834392 64810,6917.898,95.438,540.483,539.042,0.0
52605.0,STARLINK-4000,PAYLOAD,2023-07-14 15:56:34,15.08846118,0.0001118,53.2161,314.2444,85.3776,274.7344,9.2731e-05,1.189e-05,0.0,0 STARLINK-4000,1 52605U 22052H   23195.66429269  .00001189  00000-0  92731-4 0  9998,2 52605  53.2161 314.2444 0001118  85.3776 274.7344 15.08846118 64864,6917.862,95.437,540.5,538.953,0.0
52605.0,STARLINK-4000,PAYLOAD,2023-07-15 01:28:54,15.08840803,0.000126,53.2164,312.4607,80.7131,279.4004,4.1844e-05,3.78e-06,0.0,0 STARLINK-4000,1 52605U 22052H   23196.06173752  .00000378  00000-0  41844-4 0  9994,2 52605  53.2164 312.4607 0001260  80.7131 279.4004 15.08840803 64927,6917.878,95.438,540.615,538.871,0.0
